start=new Date('2023-02-05T00:00:00.000Z').valueOf();
sats=[{"MEAN_MOTION_DOT":"-0.00834634","COUNTRY_CODE":"US","FILE":"3772471","MEAN_ANOMALY":"67.1407","ECCENTRICITY":"0.00036220","OBJECT_TYPE":"PAYLOAD","MEAN_MOTION_DDOT":"0.0000000000000","DECAY_DATE":null,"ARG_OF_PERICENTER":"264.8556","PERIAPSIS":"344.848","REF_FRAME":"TEME","INCLINATION":"70.0003","TLE_LINE2":"2 55295  70.0003  22.6585 0003622 264.8556  67.1407 15.74069068  3098","MEAN_MOTION":"15.74069068","EPOCH":"2023-02-05T00:00:02.000160","OBJECT_NAME":"STARLINK-5293","SEMIMAJOR_AXIS":"6725.419","SITE":"AFWTR","RCS_SIZE":"LARGE","OBJECT_ID":"2023-010AC","PERIOD":"91.483","REV_AT_EPOCH":"309","CENTER_NAME":"EARTH","RA_OF_ASC_NODE":"22.6585","TLE_LINE1":"1 55295U 23010AC  23036.00002315 -.00834634  00000-0 -64210-2 0  9992","GP_ID":"224418072","NORAD_CAT_ID":"55295","EPHEMERIS_TYPE":"0","ELEMENT_SET_NO":"999","CLASSIFICATION_TYPE":"U","LAUNCH_DATE":"2023-01-19","APOAPSIS":"349.720","BSTAR":"-0.00642100000000","TIME_SYSTEM":"UTC","MEAN_ELEMENT_THEORY":"SGP4"},{"COUNTRY_CODE":"US","MEAN_MOTION_DOT":"-0.00833061","MEAN_ANOMALY":"332.6964","FILE":"3772514","ECCENTRICITY":"0.00035030","OBJECT_TYPE":"PAYLOAD","MEAN_MOTION_DDOT":"0.0000000000000","REF_FRAME":"TEME","DECAY_DATE":null,"PERIAPSIS":"343.749","INCLINATION":"70.0001","ARG_OF_PERICENTER":"262.6447","MEAN_MOTION":"15.74483246","TLE_LINE2":"2 55296  70.0001  22.8754 0003503 262.6447 332.6964 15.74483246  1308","EPOCH":"2023-02-04T22:00:00.999936","SEMIMAJOR_AXIS":"6724.239","OBJECT_NAME":"STARLINK-5285","SITE":"AFWTR","OBJECT_ID":"2023-010AD","RCS_SIZE":"LARGE","PERIOD":"91.459","REV_AT_EPOCH":"130","CENTER_NAME":"EARTH","TLE_LINE1":"1 55296U 23010AD  23035.91667824 -.00833061  00000-0 -62939-2 0  9993","GP_ID":"224444526","RA_OF_ASC_NODE":"22.8754","NORAD_CAT_ID":"55296","EPHEMERIS_TYPE":"0","ELEMENT_SET_NO":"999","CLASSIFICATION_TYPE":"U","APOAPSIS":"348.460","LAUNCH_DATE":"2023-01-19","TIME_SYSTEM":"UTC","BSTAR":"-0.00629390000000","MEAN_ELEMENT_THEORY":"SGP4"},{"SITE":"AFWTR","OBJECT_NAME":"STARLINK-5284","SEMIMAJOR_AXIS":"6724.736","EPOCH":"2023-02-05T00:00:02.000160","MEAN_MOTION":"15.74308633","TLE_LINE2":"2 55297  70.0001  22.6420 0003630 265.9517  80.0769 15.74308633  3093","INCLINATION":"70.0001","DECAY_DATE":null,"PERIAPSIS":"344.160","REF_FRAME":"TEME","ARG_OF_PERICENTER":"265.9517","MEAN_MOTION_DDOT":"0.0000000000000","OBJECT_TYPE":"PAYLOAD","ECCENTRICITY":"0.00036300","FILE":"3772471","MEAN_ANOMALY":"80.0769","COUNTRY_CODE":"US","MEAN_MOTION_DOT":"-0.00834767","MEAN_ELEMENT_THEORY":"SGP4","BSTAR":"-0.00635570000000","TIME_SYSTEM":"UTC","APOAPSIS":"349.042","LAUNCH_DATE":"2023-01-19","ELEMENT_SET_NO":"999","CLASSIFICATION_TYPE":"U","EPHEMERIS_TYPE":"0","NORAD_CAT_ID":"55297","TLE_LINE1":"1 55297U 23010AE  23036.00002315 -.00834767  00000-0 -63557-2 0  9994","GP_ID":"224418069","RA_OF_ASC_NODE":"22.6420","REV_AT_EPOCH":"309","CENTER_NAME":"EARTH","PERIOD":"91.469","RCS_SIZE":"LARGE","OBJECT_ID":"2023-010AE"},{"OBJECT_TYPE":"PAYLOAD","MEAN_MOTION_DDOT":"0.0000000000000","ECCENTRICITY":"0.00034970","MEAN_MOTION_DOT":"-0.00833057","COUNTRY_CODE":"US","FILE":"3772514","MEAN_ANOMALY":"332.6417","SITE":"AFWTR","OBJECT_NAME":"STARLINK-5272","SEMIMAJOR_AXIS":"6724.211","EPOCH":"2023-02-04T22:00:00.999936","REF_FRAME":"TEME","DECAY_DATE":null,"PERIAPSIS":"343.725","INCLINATION":"70.0001","ARG_OF_PERICENTER":"263.2050","MEAN_MOTION":"15.74493069","TLE_LINE2":"2 55298  70.0001  22.8748 0003497 263.2050 332.6417 15.74493069  1309","REV_AT_EPOCH":"130","CENTER_NAME":"EARTH","RCS_SIZE":"LARGE","OBJECT_ID":"2023-010AF","PERIOD":"91.458","BSTAR":"-0.00629120000000","TIME_SYSTEM":"UTC","MEAN_ELEMENT_THEORY":"SGP4","ELEMENT_SET_NO":"999","CLASSIFICATION_TYPE":"U","EPHEMERIS_TYPE":"0","APOAPSIS":"348.428","LAUNCH_DATE":"2023-01-19","TLE_LINE1":"1 55298U 23010AF  23035.91667824 -.00833057  00000-0 -62912-2 0  9991","RA_OF_ASC_NODE":"22.8748","GP_ID":"224445003","NORAD_CAT_ID":"55298"},{"SITE":"AFWTR","OBJECT_NAME":"STARLINK-5270","SEMIMAJOR_AXIS":"6724.291","EPOCH":"2023-02-04T22:00:00.999936","DECAY_DATE":null,"ARG_OF_PERICENTER":"266.6719","PERIAPSIS":"343.823","REF_FRAME":"TEME","INCLINATION":"70.0001","TLE_LINE2":"2 55299  70.0001  22.8770 0003469 266.6719 327.6434 15.74465153  1309","MEAN_MOTION":"15.74465153","OBJECT_TYPE":"PAYLOAD","MEAN_MOTION_DDOT":"0.0000000000000","ECCENTRICITY":"0.00034690","COUNTRY_CODE":"US","MEAN_MOTION_DOT":"-0.00833077","FILE":"3772514","MEAN_ANOMALY":"327.6434","BSTAR":"-0.00629910000000","TIME_SYSTEM":"UTC","MEAN_ELEMENT_THEORY":"SGP4","CLASSIFICATION_TYPE":"U","ELEMENT_SET_NO":"999","EPHEMERIS_TYPE":"0","LAUNCH_DATE":"2023-01-19","APOAPSIS":"348.488","TLE_LINE1":"1 55299U 23010AG  23035.91667824 -.00833077  00000-0 -62991-2 0  9991","RA_OF_ASC_NODE":"22.8770","GP_ID":"224443282","NORAD_CAT_ID":"55299","REV_AT_EPOCH":"130","CENTER_NAME":"EARTH","RCS_SIZE":"LARGE","OBJECT_ID":"2023-010AG","PERIOD":"91.460"},{"COUNTRY_CODE":"US","MEAN_MOTION_DOT":"-0.00833047","MEAN_ANOMALY":"333.5096","FILE":"3772514","ECCENTRICITY":"0.00035020","OBJECT_TYPE":"PAYLOAD","MEAN_MOTION_DDOT":"0.0000000000000","DECAY_DATE":null,"PERIAPSIS":"343.695","REF_FRAME":"TEME","INCLINATION":"70.0001","ARG_OF_PERICENTER":"262.8490","TLE_LINE2":"2 55300  70.0001  22.8741 0003502 262.8490 333.5096 15.74502196  1301","MEAN_MOTION":"15.74502196","EPOCH":"2023-02-04T22:00:00.999936","SEMIMAJOR_AXIS":"6724.185","OBJECT_NAME":"STARLINK-5308","SITE":"AFWTR","OBJECT_ID":"2023-010AH","RCS_SIZE":"LARGE","PERIOD":"91.457","REV_AT_EPOCH":"130","CENTER_NAME":"EARTH","TLE_LINE1":"1 55300U 23010AH  23035.91667824 -.00833047  00000-0 -62886-2 0  9994","GP_ID":"224444032","RA_OF_ASC_NODE":"22.8741","NORAD_CAT_ID":"55300","ELEMENT_SET_NO":"999","CLASSIFICATION_TYPE":"U","EPHEMERIS_TYPE":"0","APOAPSIS":"348.405","LAUNCH_DATE":"2023-01-19","TIME_SYSTEM":"UTC","BSTAR":"-0.00628860000000","MEAN_ELEMENT_THEORY":"SGP4"},{"MEAN_MOTION_DDOT":"0.0000000000000","OBJECT_TYPE":"PAYLOAD","ECCENTRICITY":"0.00034710","MEAN_ANOMALY":"330.0251","FILE":"3772514","COUNTRY_CODE":"US","MEAN_MOTION_DOT":"-0.00833041","SITE":"AFWTR","SEMIMAJOR_AXIS":"6724.163","OBJECT_NAME":"STARLINK-5321","EPOCH":"2023-02-04T22:00:00.999936","TLE_LINE2":"2 55302  70.0001  22.8735 0003471 266.8565 330.0251 15.74510082  1306","MEAN_MOTION":"15.74510082","DECAY_DATE":null,"ARG_OF_PERICENTER":"266.8565","PERIAPSIS":"343.694","REF_FRAME":"TEME","INCLINATION":"70.0001","REV_AT_EPOCH":"130","CENTER_NAME":"EARTH","PERIOD":"91.457","OBJECT_ID":"2023-010AK","RCS_SIZE":"LARGE","MEAN_ELEMENT_THEORY":"SGP4","TIME_SYSTEM":"UTC","BSTAR":"-0.00628650000000","LAUNCH_DATE":"2023-01-19","APOAPSIS":"348.362","EPHEMERIS_TYPE":"0","ELEMENT_SET_NO":"999","CLASSIFICATION_TYPE":"U","NORAD_CAT_ID":"55302","TLE_LINE1":"1 55302U 23010AK  23035.91667824 -.00833041  00000-0 -62865-2 0  9997","GP_ID":"224444773","RA_OF_ASC_NODE":"22.8735"},{"CENTER_NAME":"EARTH","REV_AT_EPOCH":"130","PERIOD":"91.464","RCS_SIZE":"LARGE","OBJECT_ID":"2023-010AL","MEAN_ELEMENT_THEORY":"SGP4","BSTAR":"-0.00632060000000","TIME_SYSTEM":"UTC","NORAD_CAT_ID":"55303","GP_ID":"224444509","TLE_LINE1":"1 55303U 23010AL  23035.91667824 -.00833106  00000-0 -63206-2 0  9990","RA_OF_ASC_NODE":"22.8824","LAUNCH_DATE":"2023-01-19","APOAPSIS":"348.729","CLASSIFICATION_TYPE":"U","ELEMENT_SET_NO":"999","EPHEMERIS_TYPE":"0","ECCENTRICITY":"0.00034970","MEAN_MOTION_DDOT":"0.0000000000000","OBJECT_TYPE":"PAYLOAD","FILE":"3772514","MEAN_ANOMALY":"327.0112","COUNTRY_CODE":"US","MEAN_MOTION_DOT":"-0.00833106","OBJECT_NAME":"STARLINK-5322","SEMIMAJOR_AXIS":"6724.512","SITE":"AFWTR","TLE_LINE2":"2 55303  70.0001  22.8824 0003497 262.6470 327.0112 15.74387316  1307","MEAN_MOTION":"15.74387316","DECAY_DATE":null,"INCLINATION":"70.0001","PERIAPSIS":"344.026","REF_FRAME":"TEME","ARG_OF_PERICENTER":"262.6470","EPOCH":"2023-02-04T22:00:00.999936"},{"REV_AT_EPOCH":"130","CENTER_NAME":"EARTH","PERIOD":"91.456","RCS_SIZE":"LARGE","OBJECT_ID":"2023-010AM","MEAN_ELEMENT_THEORY":"SGP4","BSTAR":"-0.00628370000000","TIME_SYSTEM":"UTC","LAUNCH_DATE":"2023-01-19","APOAPSIS":"348.361","ELEMENT_SET_NO":"999","EPHEMERIS_TYPE":"0","CLASSIFICATION_TYPE":"U","NORAD_CAT_ID":"55304","RA_OF_ASC_NODE":"22.8728","TLE_LINE1":"1 55304U 23010AM  23035.91667824 -.00833023  00000-0 -62837-2 0  9998","GP_ID":"224443783","MEAN_MOTION_DDOT":"0.0000000000000","OBJECT_TYPE":"PAYLOAD","ECCENTRICITY":"0.00035090","FILE":"3772514","MEAN_ANOMALY":"335.0982","MEAN_MOTION_DOT":"-0.00833023","COUNTRY_CODE":"US","SITE":"AFWTR","OBJECT_NAME":"STARLINK-5318","SEMIMAJOR_AXIS":"6724.136","EPOCH":"2023-02-04T22:00:00.999936","TLE_LINE2":"2 55304  70.0001  22.8728 0003509 262.2941 335.0982 15.74519295  1301","MEAN_MOTION":"15.74519295","DECAY_DATE":null,"PERIAPSIS":"343.642","REF_FRAME":"TEME","ARG_OF_PERICENTER":"262.2941","INCLINATION":"70.0001"},{"ECCENTRICITY":"0.00034720","OBJECT_TYPE":"PAYLOAD","MEAN_MOTION_DDOT":"0.0000000000000","COUNTRY_CODE":"US","MEAN_MOTION_DOT":"-0.00833189","FILE":"3772514","MEAN_ANOMALY":"316.9108","OBJECT_NAME":"STARLINK-5316","SEMIMAJOR_AXIS":"6724.910","SITE":"AFWTR","ARG_OF_PERICENTER":"264.4482","DECAY_DATE":null,"PERIAPSIS":"344.440","REF_FRAME":"TEME","INCLINATION":"70.0001","MEAN_MOTION":"15.74247782","TLE_LINE2":"2 55305  70.0001  22.8922 0003472 264.4482 316.9108 15.74247782  1308","EPOCH":"2023-02-04T22:00:00.999936","REV_AT_EPOCH":"130","CENTER_NAME":"EARTH","RCS_SIZE":"LARGE","OBJECT_ID":"2023-010AN","PERIOD":"91.472","BSTAR":"-0.00635980000000","TIME_SYSTEM":"UTC","MEAN_ELEMENT_THEORY":"SGP4","GP_ID":"224444527","TLE_LINE1":"1 55305U 23010AN  23035.91667824 -.00833189  00000-0 -63598-2 0  9997","RA_OF_ASC_NODE":"22.8922","NORAD_CAT_ID":"55305","ELEMENT_SET_NO":"999","EPHEMERIS_TYPE":"0","CLASSIFICATION_TYPE":"U","APOAPSIS":"349.109","LAUNCH_DATE":"2023-01-19"}];
